CCSDS_OMM_VERS = 2.0
CREATION_DATE  = 
ORIGINATOR     = 

OBJECT_NAME    = TWILIGHT H
OBJECT_ID      = 2026-004H
CENTER_NAME    = EARTH
REF_FRAME      = TEME
TIME_SYSTEM    = UTC
MEAN_ELEMENT_THEORY = SGP/SGP4

EPOCH          = 2026-01-27T05:20:04.307712
MEAN_MOTION    = 14.87328521
ECCENTRICITY   = .00055342
INCLINATION    = 97.7953
RA_OF_ASC_NODE = 28.1139
ARG_OF_PERICENTER = 244.4222
MEAN_ANOMALY   = 115.6423

EPHEMERIS_TYPE = 0
CLASSIFICATION_TYPE = U
NORAD_CAT_ID   = 67370
ELEMENT_SET_NO = 999
REV_AT_EPOCH   = 233
BSTAR          = .94457716E-3
MEAN_MOTION_DOT = .8482E-4
MEAN_MOTION_DDOT = 0

CCSDS_OMM_VERS = 2.0
CREATION_DATE  = 
ORIGINATOR     = 

OBJECT_NAME    = TWILIGHT J
OBJECT_ID      = 2026-004J
CENTER_NAME    = EARTH
REF_FRAME      = TEME
TIME_SYSTEM    = UTC
MEAN_ELEMENT_THEORY = SGP/SGP4

EPOCH          = 2026-01-27T05:15:03.489696
MEAN_MOTION    = 14.87708958
ECCENTRICITY   = .00046823
INCLINATION    = 97.7995
RA_OF_ASC_NODE = 28.1209
ARG_OF_PERICENTER = 225.9631
MEAN_ANOMALY   = 134.1200

EPHEMERIS_TYPE = 0
CLASSIFICATION_TYPE = U
NORAD_CAT_ID   = 67371
ELEMENT_SET_NO = 999
REV_AT_EPOCH   = 233
BSTAR          = .11408306E-2
MEAN_MOTION_DOT = .10354E-3
MEAN_MOTION_DDOT = 0

CCSDS_OMM_VERS = 2.0
CREATION_DATE  = 
ORIGINATOR     = 

OBJECT_NAME    = TWILIGHT K
OBJECT_ID      = 2026-004K
CENTER_NAME    = EARTH
REF_FRAME      = TEME
TIME_SYSTEM    = UTC
MEAN_ELEMENT_THEORY = SGP/SGP4

EPOCH          = 2026-01-27T06:47:05.610912
MEAN_MOTION    = 14.87945002
ECCENTRICITY   = .00030938
INCLINATION    = 97.7971
RA_OF_ASC_NODE = 28.1891
ARG_OF_PERICENTER = 218.8211
MEAN_ANOMALY   = 141.2784

EPHEMERIS_TYPE = 0
CLASSIFICATION_TYPE = U
NORAD_CAT_ID   = 67372
ELEMENT_SET_NO = 999
REV_AT_EPOCH   = 234
BSTAR          = .480855E-3
MEAN_MOTION_DOT = .4354E-4
MEAN_MOTION_DDOT = 0

CCSDS_OMM_VERS = 2.0
CREATION_DATE  = 
ORIGINATOR     = 

OBJECT_NAME    = TWILIGHT L
OBJECT_ID      = 2026-004L
CENTER_NAME    = EARTH
REF_FRAME      = TEME
TIME_SYSTEM    = UTC
MEAN_ELEMENT_THEORY = SGP/SGP4

EPOCH          = 2026-01-27T06:53:02.556960
MEAN_MOTION    = 14.87549332
ECCENTRICITY   = .00046648
INCLINATION    = 97.7985
RA_OF_ASC_NODE = 28.1853
ARG_OF_PERICENTER = 231.8357
MEAN_ANOMALY   = 128.2440

EPHEMERIS_TYPE = 0
CLASSIFICATION_TYPE = U
NORAD_CAT_ID   = 67373
ELEMENT_SET_NO = 999
REV_AT_EPOCH   = 234
BSTAR          = .43945594E-3
MEAN_MOTION_DOT = .3936E-4
MEAN_MOTION_DDOT = 0

CCSDS_OMM_VERS = 2.0
CREATION_DATE  = 
ORIGINATOR     = 

OBJECT_NAME    = TWILIGHT M
OBJECT_ID      = 2026-004M
CENTER_NAME    = EARTH
REF_FRAME      = TEME
TIME_SYSTEM    = UTC
MEAN_ELEMENT_THEORY = SGP/SGP4

EPOCH          = 2026-01-27T05:11:19.903776
MEAN_MOTION    = 14.87894847
ECCENTRICITY   = .00033419
INCLINATION    = 97.7971
RA_OF_ASC_NODE = 28.1208
ARG_OF_PERICENTER = 219.9180
MEAN_ANOMALY   = 140.1791

EPHEMERIS_TYPE = 0
CLASSIFICATION_TYPE = U
NORAD_CAT_ID   = 67374
ELEMENT_SET_NO = 999
REV_AT_EPOCH   = 233
BSTAR          = .49483608E-3
MEAN_MOTION_DOT = .4477E-4
MEAN_MOTION_DDOT = 0

CCSDS_OMM_VERS = 2.0
CREATION_DATE  = 
ORIGINATOR     = 

OBJECT_NAME    = TWILIGHT N
OBJECT_ID      = 2026-004N
CENTER_NAME    = EARTH
REF_FRAME      = TEME
TIME_SYSTEM    = UTC
MEAN_ELEMENT_THEORY = SGP/SGP4

EPOCH          = 2026-01-27T06:47:46.002912
MEAN_MOTION    = 14.87922296
ECCENTRICITY   = .00039284
INCLINATION    = 97.8007
RA_OF_ASC_NODE = 28.1928
ARG_OF_PERICENTER = 213.7949
MEAN_ANOMALY   = 146.3018

EPHEMERIS_TYPE = 0
CLASSIFICATION_TYPE = U
NORAD_CAT_ID   = 67375
ELEMENT_SET_NO = 999
REV_AT_EPOCH   = 234
BSTAR          = .53405797E-3
MEAN_MOTION_DOT = .484E-4
MEAN_MOTION_DDOT = 0

CCSDS_OMM_VERS = 2.0
CREATION_DATE  = 
ORIGINATOR     = 

OBJECT_NAME    = TWILIGHT P
OBJECT_ID      = 2026-004P
CENTER_NAME    = EARTH
REF_FRAME      = TEME
TIME_SYSTEM    = UTC
MEAN_ELEMENT_THEORY = SGP/SGP4

EPOCH          = 2026-01-27T06:49:58.104192
MEAN_MOTION    = 14.87773905
ECCENTRICITY   = .00042705
INCLINATION    = 97.8004
RA_OF_ASC_NODE = 28.1900
ARG_OF_PERICENTER = 220.7421
MEAN_ANOMALY   = 139.3476

EPHEMERIS_TYPE = 0
CLASSIFICATION_TYPE = U
NORAD_CAT_ID   = 67376
ELEMENT_SET_NO = 999
REV_AT_EPOCH   = 234
BSTAR          = .50550553E-3
MEAN_MOTION_DOT = .4561E-4
MEAN_MOTION_DDOT = 0

CCSDS_OMM_VERS = 2.0
CREATION_DATE  = 
ORIGINATOR     = 

OBJECT_NAME    = TWILIGHT Q
OBJECT_ID      = 2026-004Q
CENTER_NAME    = EARTH
REF_FRAME      = TEME
TIME_SYSTEM    = UTC
MEAN_ELEMENT_THEORY = SGP/SGP4

EPOCH          = 2026-01-27T06:47:33.598464
MEAN_MOTION    = 14.87940712
ECCENTRICITY   = .00039023
INCLINATION    = 97.8006
RA_OF_ASC_NODE = 28.1928
ARG_OF_PERICENTER = 212.3867
MEAN_ANOMALY   = 147.7110

EPHEMERIS_TYPE = 0
CLASSIFICATION_TYPE = U
NORAD_CAT_ID   = 67377
ELEMENT_SET_NO = 999
REV_AT_EPOCH   = 233
BSTAR          = .65650373E-3
MEAN_MOTION_DOT = .5966E-4
MEAN_MOTION_DDOT = 0

CCSDS_OMM_VERS = 2.0
CREATION_DATE  = 
ORIGINATOR     = 

OBJECT_NAME    = TWILIGHT R
OBJECT_ID      = 2026-004R
CENTER_NAME    = EARTH
REF_FRAME      = TEME
TIME_SYSTEM    = UTC
MEAN_ELEMENT_THEORY = SGP/SGP4

EPOCH          = 2026-01-27T05:14:14.989920
MEAN_MOTION    = 14.87697111
ECCENTRICITY   = .00036861
INCLINATION    = 97.7978
RA_OF_ASC_NODE = 28.1192
ARG_OF_PERICENTER = 231.6785
MEAN_ANOMALY   = 128.4100

EPHEMERIS_TYPE = 0
CLASSIFICATION_TYPE = U
NORAD_CAT_ID   = 67378
ELEMENT_SET_NO = 999
REV_AT_EPOCH   = 232
BSTAR          = .54148929E-3
MEAN_MOTION_DOT = .4881E-4
MEAN_MOTION_DDOT = 0

CCSDS_OMM_VERS = 2.0
CREATION_DATE  = 
ORIGINATOR     = 

OBJECT_NAME    = TWILIGHT S
OBJECT_ID      = 2026-004S
CENTER_NAME    = EARTH
REF_FRAME      = TEME
TIME_SYSTEM    = UTC
MEAN_ELEMENT_THEORY = SGP/SGP4

EPOCH          = 2026-01-27T05:14:04.003296
MEAN_MOTION    = 14.87708131
ECCENTRICITY   = .00042026
INCLINATION    = 97.7982
RA_OF_ASC_NODE = 28.1209
ARG_OF_PERICENTER = 227.3659
MEAN_ANOMALY   = 132.7204

EPHEMERIS_TYPE = 0
CLASSIFICATION_TYPE = U
NORAD_CAT_ID   = 67379
ELEMENT_SET_NO = 999
REV_AT_EPOCH   = 232
BSTAR          = .5415281E-3
MEAN_MOTION_DOT = .4882E-4
MEAN_MOTION_DDOT = 0

CCSDS_OMM_VERS = 2.0
CREATION_DATE  = 
ORIGINATOR     = 

OBJECT_NAME    = TWILIGHT T
OBJECT_ID      = 2026-004T
CENTER_NAME    = EARTH
REF_FRAME      = TEME
TIME_SYSTEM    = UTC
MEAN_ELEMENT_THEORY = SGP/SGP4

EPOCH          = 2026-01-27T06:49:35.216832
MEAN_MOTION    = 14.87805192
ECCENTRICITY   = .00037004
INCLINATION    = 97.7974
RA_OF_ASC_NODE = 28.1871
ARG_OF_PERICENTER = 226.1589
MEAN_ANOMALY   = 133.9323

EPHEMERIS_TYPE = 0
CLASSIFICATION_TYPE = U
NORAD_CAT_ID   = 67380
ELEMENT_SET_NO = 999
REV_AT_EPOCH   = 233
BSTAR          = .51633069E-3
MEAN_MOTION_DOT = .4664E-4
MEAN_MOTION_DDOT = 0

CCSDS_OMM_VERS = 2.0
CREATION_DATE  = 
ORIGINATOR     = 

OBJECT_NAME    = TWILIGHT U
OBJECT_ID      = 2026-004U
CENTER_NAME    = EARTH
REF_FRAME      = TEME
TIME_SYSTEM    = UTC
MEAN_ELEMENT_THEORY = SGP/SGP4

EPOCH          = 2026-01-27T06:47:31.239744
MEAN_MOTION    = 14.87944030
ECCENTRICITY   = .00040445
INCLINATION    = 97.8011
RA_OF_ASC_NODE = 28.1947
ARG_OF_PERICENTER = 214.2442
MEAN_ANOMALY   = 145.8514

EPHEMERIS_TYPE = 0
CLASSIFICATION_TYPE = U
NORAD_CAT_ID   = 67381
ELEMENT_SET_NO = 999
REV_AT_EPOCH   = 233
BSTAR          = .67930826E-3
MEAN_MOTION_DOT = .6175E-4
MEAN_MOTION_DDOT = 0

