TWILIGHT H              
1 67370U 26004H   26027.22227208  .00008482  00000+0  94458-3 0  9991
2 67370  97.7953  28.1139 0005534 244.4222 115.6423 14.87328521  2337
TWILIGHT J              
1 67371U 26004J   26027.21879039  .00010354  00000+0  11408-2 0  9990
2 67371  97.7995  28.1209 0004682 225.9631 134.1200 14.87708958  2338
TWILIGHT K              
1 67372U 26004K   26027.28270383  .00004354  00000+0  48085-3 0  9990
2 67372  97.7971  28.1891 0003093 218.8211 141.2784 14.87945002  2340
TWILIGHT L              
1 67373U 26004L   26027.28683515  .00003936  00000+0  43946-3 0  9992
2 67373  97.7985  28.1853 0004664 231.8357 128.2440 14.87549332  2345
TWILIGHT M              
1 67374U 26004M   26027.21620259  .00004477  00000+0  49484-3 0  9996
2 67374  97.7971  28.1208 0003341 219.9180 140.1791 14.87894847  2332
TWILIGHT N              
1 67375U 26004N   26027.28317133  .00004840  00000+0  53406-3 0  9991
2 67375  97.8007  28.1928 0003928 213.7949 146.3018 14.87922296  2340
TWILIGHT P              
1 67376U 26004P   26027.28470028  .00004561  00000+0  50551-3 0  9993
2 67376  97.8004  28.1900 0004270 220.7421 139.3476 14.87773905  2343
TWILIGHT Q              
1 67377U 26004Q   26027.28302776  .00005966  00000+0  65650-3 0  9994
2 67377  97.8006  28.1928 0003902 212.3867 147.7110 14.87940712  2337
TWILIGHT R              
1 67378U 26004R   26027.21822905  .00004881  00000+0  54149-3 0  9995
2 67378  97.7978  28.1192 0003686 231.6785 128.4100 14.87697111  2326
TWILIGHT S              
1 67379U 26004S   26027.21810189  .00004882  00000+0  54153-3 0  9993
2 67379  97.7982  28.1209 0004202 227.3659 132.7204 14.87708131  2326
TWILIGHT T              
1 67380U 26004T   26027.28443538  .00004664  00000+0  51633-3 0  9990
2 67380  97.7974  28.1871 0003700 226.1589 133.9323 14.87805192  2336
TWILIGHT U              
1 67381U 26004U   26027.28300046  .00006175  00000+0  67931-3 0  9994
2 67381  97.8011  28.1947 0004044 214.2442 145.8514 14.87944030  2331
